{
  "type": "FeatureCollection",
  "features": [
    {
      "type": "Feature",
      "properties": {
        "norad_id": 37108,
        "name": "COSMOS 2251 DEB",
        "group": "cosmos-2251-debris",
        "lat": -22.696186711716972,
        "lon": 54.79445798329236,
        "alt_km": 819.254371106721,
        "timestamp": "2025-12-22T22:44:21.376710+00:00",
        "meta_object_name": "COSMOS 2251 DEB",
        "meta_object_id": "1993-036BGE",
        "meta_epoch": "2025-12-22T12:51:21.099168",
        "meta_mean_motion": 14.41369785,
        "meta_eccentricity": 0.0090347,
        "meta_inclination": 74.0439,
        "meta_ra_of_asc_node": 62.4288,
        "meta_arg_of_pericenter": 136.6828,
        "meta_mean_anomaly": 224.1478,
        "meta_ephemeris_type": 0,
        "meta_classification_type": "U",
        "meta_norad_cat_id": 37108,
        "meta_element_set_no": 999,
        "meta_rev_at_epoch": 85648,
        "meta_bstar": 0.00098888714,
        "meta_mean_motion_dot": 3.337e-05,
        "meta_mean_motion_ddot": 0,
        "tle_line1": "1 37108U 93036BGE 25356.53566087  .00003337  00000+0  98889-3 0  9991",
        "tle_line2": "2 37108  74.0439  62.4288 0090347 136.6828 224.1478 14.41369785856482"
      },
      "geometry": {
        "type": "Point",
        "coordinates": [
          54.79445798329236,
          -22.696186711716972
        ]
      }
    },
    {
      "type": "Feature",
      "properties": {
        "norad_id": 37126,
        "name": "COSMOS 2251 DEB",
        "group": "cosmos-2251-debris",
        "lat": -35.805458664689404,
        "lon": -37.447385676581874,
        "alt_km": 688.7938883272045,
        "timestamp": "2025-12-22T22:44:21.376721+00:00",
        "meta_object_name": "COSMOS 2251 DEB",
        "meta_object_id": "1993-036BGY",
        "meta_epoch": "2025-12-20T05:42:55.988064",
        "meta_mean_motion": 14.73095826,
        "meta_eccentricity": 0.012286,
        "meta_inclination": 73.953,
        "meta_ra_of_asc_node": 339.8407,
        "meta_arg_of_pericenter": 216.3855,
        "meta_mean_anomaly": 142.8921,
        "meta_ephemeris_type": 0,
        "meta_classification_type": "U",
        "meta_norad_cat_id": 37126,
        "meta_element_set_no": 999,
        "meta_rev_at_epoch": 8209,
        "meta_bstar": 0.00014955,
        "meta_mean_motion_dot": 1.046e-05,
        "meta_mean_motion_ddot": 0,
        "tle_line1": "1 37126U 93036BGY 25354.23814801  .00001046  00000+0  14955-3 0  9993",
        "tle_line2": "2 37126  73.9530 339.8407 0122860 216.3855 142.8921 14.73095826 82092"
      },
      "geometry": {
        "type": "Point",
        "coordinates": [
          -37.447385676581874,
          -35.805458664689404
        ]
      }
    },
    {
      "type": "Feature",
      "properties": {
        "norad_id": 37132,
        "name": "COSMOS 2251 DEB",
        "group": "cosmos-2251-debris",
        "lat": -10.750472684671884,
        "lon": 37.085375031244325,
        "alt_km": 667.9883745639536,
        "timestamp": "2025-12-22T22:44:21.376731+00:00",
        "meta_object_name": "COSMOS 2251 DEB",
        "meta_object_id": "1993-036BHE",
        "meta_epoch": "2025-12-21T08:30:46.700352",
        "meta_mean_motion": 14.77932958,
        "meta_eccentricity": 0.00403307,
        "meta_inclination": 74.0023,
        "meta_ra_of_asc_node": 217.0951,
        "meta_arg_of_pericenter": 11.0309,
        "meta_mean_anomaly": 349.1741,
        "meta_ephemeris_type": 0,
        "meta_classification_type": "U",
        "meta_norad_cat_id": 37132,
        "meta_element_set_no": 999,
        "meta_rev_at_epoch": 62543,
        "meta_bstar": 0.0006420237,
        "meta_mean_motion_dot": 4.657e-05,
        "meta_mean_motion_ddot": 0,
        "tle_line1": "1 37132U 93036BHE 25355.35470718  .00004657  00000+0  64202-3 0  9990",
        "tle_line2": "2 37132  74.0023 217.0951 0040330  11.0309 349.1741 14.77932958625437"
      },
      "geometry": {
        "type": "Point",
        "coordinates": [
          37.085375031244325,
          -10.750472684671884
        ]
      }
    },
    {
      "type": "Feature",
      "properties": {
        "norad_id": 37270,
        "name": "COSMOS 2251 DEB",
        "group": "cosmos-2251-debris",
        "lat": -24.187013402625425,
        "lon": -48.196505380184284,
        "alt_km": 747.0354631145701,
        "timestamp": "2025-12-22T22:44:21.376741+00:00",
        "meta_object_name": "COSMOS 2251 DEB",
        "meta_object_id": "1993-036BHJ",
        "meta_epoch": "2025-12-12T22:45:06.098400",
        "meta_mean_motion": 13.59808663,
        "meta_eccentricity": 0.03985351,
        "meta_inclination": 73.9378,
        "meta_ra_of_asc_node": 335.5481,
        "meta_arg_of_pericenter": 347.3958,
        "meta_mean_anomaly": 11.7404,
        "meta_ephemeris_type": 0,
        "meta_classification_type": "U",
        "meta_norad_cat_id": 37270,
        "meta_element_set_no": 999,
        "meta_rev_at_epoch": 77072,
        "meta_bstar": 0.0064936549,
        "meta_mean_motion_dot": 8.148e-05,
        "meta_mean_motion_ddot": 0,
        "tle_line1": "1 37270U 93036BHJ 25346.94798725  .00008148  00000+0  64937-2 0  9992",
        "tle_line2": "2 37270  73.9378 335.5481 0398535 347.3958  11.7404 13.59808663770728"
      },
      "geometry": {
        "type": "Point",
        "coordinates": [
          -48.196505380184284,
          -24.187013402625425
        ]
      }
    },
    {
      "type": "Feature",
      "properties": {
        "norad_id": 37278,
        "name": "COSMOS 2251 DEB",
        "group": "cosmos-2251-debris",
        "lat": -47.348958272124364,
        "lon": 169.28908307092857,
        "alt_km": 798.6060966822115,
        "timestamp": "2025-12-22T22:44:21.376751+00:00",
        "meta_object_name": "COSMOS 2251 DEB",
        "meta_object_id": "1993-036BHS",
        "meta_epoch": "2025-12-22T06:43:10.079328",
        "meta_mean_motion": 14.15136552,
        "meta_eccentricity": 0.02988964,
        "meta_inclination": 73.7862,
        "meta_ra_of_asc_node": 332.08,
        "meta_arg_of_pericenter": 152.8639,
        "meta_mean_anomaly": 274.4968,
        "meta_ephemeris_type": 0,
        "meta_classification_type": "U",
        "meta_norad_cat_id": 37278,
        "meta_element_set_no": 999,
        "meta_rev_at_epoch": 63964,
        "meta_bstar": 0.0007998951,
        "meta_mean_motion_dot": 2.366e-05,
        "meta_mean_motion_ddot": 0,
        "tle_line1": "1 37278U 93036BHS 25356.27997777  .00002366  00000+0  79990-3 0  9997",
        "tle_line2": "2 37278  73.7862 332.0800 0298896 152.8639 274.4968 14.15136552639645"
      },
      "geometry": {
        "type": "Point",
        "coordinates": [
          169.28908307092857,
          -47.348958272124364
        ]
      }
    },
    {
      "type": "Feature",
      "properties": {
        "norad_id": 37280,
        "name": "COSMOS 2251 DEB",
        "group": "cosmos-2251-debris",
        "lat": -28.697513896034422,
        "lon": 29.801377122095396,
        "alt_km": 923.355576603929,
        "timestamp": "2025-12-22T22:44:21.376761+00:00",
        "meta_object_name": "COSMOS 2251 DEB",
        "meta_object_id": "1993-036BHU",
        "meta_epoch": "2025-12-22T09:21:04.007808",
        "meta_mean_motion": 14.19363695,
        "meta_eccentricity": 0.0130066,
        "meta_inclination": 74.0303,
        "meta_ra_of_asc_node": 39.8171,
        "meta_arg_of_pericenter": 166.444,
        "meta_mean_anomaly": 194.0254,
        "meta_ephemeris_type": 0,
        "meta_classification_type": "U",
        "meta_norad_cat_id": 37280,
        "meta_element_set_no": 999,
        "meta_rev_at_epoch": 57460,
        "meta_bstar": 0.0011560526,
        "meta_mean_motion_dot": 2.619e-05,
        "meta_mean_motion_ddot": 0,
        "tle_line1": "1 37280U 93036BHU 25356.38962972  .00002619  00000+0  11561-2 0  9991",
        "tle_line2": "2 37280  74.0303  39.8171 0130066 166.4440 194.0254 14.19363695574603"
      },
      "geometry": {
        "type": "Point",
        "coordinates": [
          29.801377122095396,
          -28.697513896034422
        ]
      }
    },
    {
      "type": "Feature",
      "properties": {
        "norad_id": 37284,
        "name": "COSMOS 2251 DEB",
        "group": "cosmos-2251-debris",
        "lat": 73.80214351863852,
        "lon": -140.60835293751157,
        "alt_km": 950.7378990373072,
        "timestamp": "2025-12-22T22:44:21.376771+00:00",
        "meta_object_name": "COSMOS 2251 DEB",
        "meta_object_id": "1993-036BHY",
        "meta_epoch": "2025-12-10T18:04:20.469216",
        "meta_mean_motion": 14.12686618,
        "meta_eccentricity": 0.01605026,
        "meta_inclination": 74.0123,
        "meta_ra_of_asc_node": 160.2425,
        "meta_arg_of_pericenter": 312.4867,
        "meta_mean_anomaly": 59.8736,
        "meta_ephemeris_type": 0,
        "meta_classification_type": "U",
        "meta_norad_cat_id": 37284,
        "meta_element_set_no": 999,
        "meta_rev_at_epoch": 59147,
        "meta_bstar": 0.001592138,
        "meta_mean_motion_dot": 3.31e-05,
        "meta_mean_motion_ddot": 0,
        "tle_line1": "1 37284U 93036BHY 25344.75301469  .00003310  00000+0  15921-2 0  9994",
        "tle_line2": "2 37284  74.0123 160.2425 0160502 312.4867  59.8736 14.12686618591475"
      },
      "geometry": {
        "type": "Point",
        "coordinates": [
          -140.60835293751157,
          73.80214351863852
        ]
      }
    }
  ]
}